<!-- $Id: display_synopsc.php 1348 2010-03-29 11:18:53Z gbv $ -->
<!DOCTYPE HTML PUBLIC "-//W3C//DTD HTML 4.01 Transitional//EN">
<html>
<head>
  <title>Display synops by contries</title>
  <meta http-equiv="Content-Type" content="text/html; charset=utf-8">
  <meta name="Author" content="G. Ballester">
  <meta name="GENERATOR" content="Quanta Plus">
  <meta name="keywords" content="meteorología, temperatura, punto de rocío, sensación térmica,
   índice de calor, humedad relativa, precipitación, viento, mensajes synop, metar, taf">
  <style type="text/css">
  body, td, th, select, input, b, p{
    font-family: verdana, sans-serif;
    font-size: 12px;
  }
 </style>
</head>
<body>
<pre>
################################################################################
# Consulta realizada a 01/03/2011 02:01:37 UTC
# Estado Argentina*
# Periodo: desde 28/02/2011 17:30  a 28/02/2011 18:30  UTC
################################################################################

################################################################################
#  SYNOPS de 87007, La Quiaca Observatorio (Argentina) | 22-06S | 065-36W | 3462 m 
################################################################################
201102281800 AAXX 28183 87007 32565 43202 10174 20023 36733 47132 57016 84100
                   333 56700 84820=

################################################################################
#  SYNOPS de 87022, Tartagal Aerodrome (Argentina) | 22-39S | 063-49W | 450 m 
################################################################################
201102281800 AAXX 28184 87022 32560 11806 10279 20171 39604 40100 57023 81100
                   333 56400 81830=

################################################################################
#  SYNOPS de 87046, Jujuy Aerodrome (Argentina) | 24-23S | 065-05W | 921 m 
################################################################################
201102281800 AAXX 28184 87046 32565 51404 10263 20168 39114 48509 57024 83106
                   333 56009 83830 83270=

################################################################################
#  SYNOPS de 87047, Salta Aerodrome (Argentina) | 24-51S | 065-29W | 1238 m 
################################################################################
201102281800 AAXX 28184 87047 31462 60703 10248 20146 38802 48522 57017 70522 83253
                   333 56106 57893 83815 85360=

################################################################################
#  SYNOPS de 87078, Las Lomitas (Argentina) | 24-42S | 060-35W | 130 m 
################################################################################
201102281800 AAXX 28184 87078 32970 01806 10300 20152 39968 40117 57016=

################################################################################
#  SYNOPS de 87097, Iguazu Aerodrome (Argentina) | 25-44S | 054-28W | 270 m 
################################################################################
201102281800 AAXX 28184 87097 32570 60000 10287 20232 39786 40091 57016 85170
                   333 56200 85830 84360=

################################################################################
#  SYNOPS de 87121, Tucuman Aerodrome (Argentina) | 26-51S | 065-06W | 440 m 
################################################################################
201102281800 AAXX 28184 87121 32665 70508 10270 20156 39630 40134 57015 84806
                   333 56502 82840 83280=

################################################################################
#  SYNOPS de 87129, Santiago Del Estero Aero. (Argentina) | 27-46S | 064-18W | 198 m 
################################################################################
201102281800 AAXX 28184 87129 32665 41404 10307 20174 39916 40142 57021 83271
                   333 83835=

################################################################################
#  SYNOPS de 87155, Resistencia Aero. (Argentina) | 27-27S | 059-03W | 53 m 
################################################################################
201102281800 AAXX 28184 87155 32565 11809 10289 20177 30062 40122 57017 81400
                   333 56400 81630=

################################################################################
#  SYNOPS de 87162, Formosa Aerodrome (Argentina) | 26-12S | 058-14W | 59 m 
################################################################################
201102281800 AAXX 28184 87162 87162 32570 31815 10290 20184 30035 40103 57015 82330
                   333 56310 57917 81620 81840=

################################################################################
#  SYNOPS de 87166, Corrientes Aero. (Argentina) | 27-27S | 058-46W | 62 m 
################################################################################
201102281800 AAXX 28183 87166 32960 01413 10289 20150 30048 40120 57019=

################################################################################
#  SYNOPS de 87178, Posadas Aero. (Argentina) | 27-22S | 055-58W | 131 m 
################################################################################
201102281800 AAXX 28184 87178 32570 41408 10282 20207 39958 40102 57019 84100
                   333 56000 84830=

################################################################################
#  SYNOPS de 87217, La Rioja Aero. (Argentina) | 29-23S | 066-49W | 438 m 
################################################################################
201102281800 AAXX 28184 87217 32670 60000 10292 20187 39633 40113 57019 86800
                   333 56700 83850 83656=

################################################################################
#  SYNOPS de 87222, Catamarca Aero. (Argentina) | 28-36S | 065-46W | 454 m 
################################################################################
201102281800 AAXX 28184 87222 32770 33604 10299 20160 39597 40103 57015 83500
                   333 56500 83656=

################################################################################
#  SYNOPS de 87244, Villa De Maria Del Rio Seco (Argentina) | 29-54S | 063-41W | 341 m 
################################################################################
201102281800 AAXX 28184 87244 32570 40705 10269 20164 397776 4//// 5//// 84100=

################################################################################
#  SYNOPS de 87257, Ceres Aerodrome (Argentina) | 29-53S | 061-57W | 87 m 
################################################################################
201102281800 AAXX 28184 87257 32970 11405 10292 20133 30047 40149 57016 80002
                   333 56006=

################################################################################
#  SYNOPS de 87270, Reconquista Aerodrome (Argentina) | 29-11S | 059-42W | 48 m 
################################################################################
201102281800 AAXX 28184 87270 31960 01412 10284 20161 30078 40141 57021 70400=

################################################################################
#  SYNOPS de 87289, Paso De Los Libres Aerodrome (Argentina) | 29-41S | 057-09W | 69 m 
################################################################################
201102281800 AAXX 28184 87289 32962 01114 10282 20168 30058 40140 57020=

################################################################################
#  SYNOPS de 87311, San Juan Aerodrome (Argentina) | 31-34S | 068-52W | 597 m 
################################################################################
201102281800 AAXX 28184 87311 32665 11805 10330 20113 39437 40094 57024 81100
                   333 56000 81845=

################################################################################
#  SYNOPS de 87320, Chamical Aerodrome (Argentina) | 30-22S | 066-17W | 467 m 
################################################################################
201102281800 AAXX 28184 87320 32670 50904 10303 20153 39608 40121 57024 85100
                   333 56200 85835=

################################################################################
#  SYNOPS de 87328, Villa Dolores Aerodrome (Argentina) | 31-57S | 065-08W | 561 m 
################################################################################
201102281800 AAXX 28184 87328 32680 20000 10298 20168 39496 40130 57020 82100
                   333 56100 82840 95000=

################################################################################
#  SYNOPS de 87344, Cordoba Aerodrome (Argentina) | 31-19S | 064-13W | 484 m 
################################################################################
201102281800 AAXX 28184 87344 32562 30511 10272 20146 39621 40156 57013 82402
                   333 56007 82625=

################################################################################
#  SYNOPS de 87349, Pilar Observatorio (Argentina) | 31-40S | 063-53W | 338 m 
################################################################################
201102281800 AAXX 28184 87349 31565 60506 10267 20167 39781 40168 57007 70522 85201
                   333 56100 57895 85830=

################################################################################
#  SYNOPS de 87371, Sauce Viejo Aerodrome (Argentina) | 31-42S | 060-49W | 17 m 
################################################################################
201102281800 AAXX 28184 87371 32962 00509 10296 20159 30146 40167 57016=

################################################################################
#  SYNOPS de 87374, Parana Aerodrome (Argentina) | 31-47S | 060-29W | 74 m 
################################################################################
201102281800 AAXX 28184 87374 32965 00910 10294 20126 30076 40162 57015=

################################################################################
#  SYNOPS de 87393, Monte Caseros Aerodrome (Argentina) | 30-16S | 057-39W | 53 m 
################################################################################
201102281800 AAXX 28184 87393 32970 01109 10290 20155 30084 40147 57025=

################################################################################
#  SYNOPS de 87395, Concordia Aerodrome (Argentina) | 31-18S | 058-01W | 35 m 
################################################################################
201102281800 AAXX 28184 87395 42965 01408 10294 20126 30113 40157 57016=

################################################################################
#  SYNOPS de 87416, San Martin (Argentina) | 33-05S | 068-25W | 653 m 
################################################################################
201102281800 AAXX 28184 87416 32975 00505 10305 20154 39377 40102 58025=

################################################################################
#  SYNOPS de 87418, Mendoza Aerodrome (Argentina) | 32-50S | 068-47W | 705 m 
################################################################################
201102281800 AAXX 28184 87418 32765 11103 10302 20140 39326 40100 56019 81100
                   333 56000 81850=

################################################################################
#  SYNOPS de 87436, San Luis Aerodrome (Argentina) | 33-16S | 066-21W | 710 m 
################################################################################
201102281800 AAXX 28184 87436 32670 13206 10301 20163 39334 40118 57021 81500
                   333 56200 81640=

################################################################################
#  SYNOPS de 87448, Villa Reynolds Aerodrome (Argentina) | 33-44S | 065-23W | 485 m 
################################################################################
201102281800 AAXX 28184 87448 32565 30507 10304 20182 39590 40137 57015 83800
                   333 56500 81630=

################################################################################
#  SYNOPS de 87453, Rio Cuarto Aerodrome (Argentina) | 33-07S | 064-14W | 420 m 
################################################################################
201102281800 AAXX 28184 87453 32965 03614 10272 20154 39669 40148 57016=

################################################################################
#  SYNOPS de 87467, Marcos Juarez Aerodrome (Argentina) | 32-42S | 062-09W | 110 m 
################################################################################
201102281800 AAXX 28184 87467 32570 10510 10295 20179 30022 40154 57016 81100
                   333 56500 81830=

################################################################################
#  SYNOPS de 87480, Rosario Aerodrome (Argentina) | 32-55S | 060-47W | 25 m 
################################################################################
201102281800 AAXX 28184 87480 32965 00709 10299 20144 30136 40164 57012=

################################################################################
#  SYNOPS de 87497, Gualeguaychu Aerodrome (Argentina) | 33-00S | 058-37W | 23 m 
################################################################################
201102281800 AAXX 28184 87497 32965 01107 10289 20192 30146 40173 57012=

################################################################################
#  SYNOPS de 87506, Malargue Aerodrome (Argentina) | 35-30S | 069-35W | 1426 m 
################################################################################
201102281800 AAXX 28184 87506 32570 10506 10273 20093 38582 48509 58015 81100
                   333 56600 81830 95000=

################################################################################
#  SYNOPS de 87509, San Rafael Aerodrome (Argentina) | 34-35S | 068-24W | 745 m 
################################################################################
201102281800 AAXX 28184 87509 32970 03610 10308 20100 39282 40102 57016=

################################################################################
#  SYNOPS de 87534, Laboulaye (Argentina) | 34-08S | 063-22W | 136 m 
################################################################################
201102281800 AAXX 28184 87534 32960 00514 10295 20135 30001 40156 57020=

################################################################################
#  SYNOPS de 87548, Junin Aerodrome (Argentina) | 34-33S | 060-55W | 82 m 
################################################################################
201102281800 AAXX 28183 87548 32965 00508 10291 20160 30070 40165 57019=

################################################################################
#  SYNOPS de 87563, Las Flores Aerodrome (Argentina) | 36-04S | 059-06W | 38 m 
################################################################################
201102281800 AAXX 28184 87563 32965 00906 10291 20164 30140 40183=

################################################################################
#  SYNOPS de 87576, Ezeiza Aerodrome (Argentina) | 34-49S | 058-32W | 20 m 
################################################################################
201102281800 AAXX 28184 87576 32660 11608 10296 20163 30157 40180 57019 81100
                   333 56000 81848=

################################################################################
#  SYNOPS de 87582, Aeroparque Bs. As. Aerodrome (Argentina) | 34-34S | 058-25W | 6 m 
################################################################################
201102281800 AAXX 28184 87582 32460 11111 10257 20187 30180 40186 57012 81500
                   333 56300 81615=

################################################################################
#  SYNOPS de 87593, La Plata Aerodrome (Argentina) | 34-58S | 057-54W | 21 m 
################################################################################
201102281800 AAXX 28184 87593 32960 00910 10276 20181 30168 40194 55003=

################################################################################
#  SYNOPS de 87623, Santa Rosa Aerodrome (Argentina) | 36-34S | 064-16W | 190 m 
################################################################################
201102281800 AAXX 28184 87623 32980 00218 10317 20159 39925 40143 57016=

################################################################################
#  SYNOPS de 87640, Bolivar Aerodrome (Argentina) | 36-12S | 061-04W | 94 m 
################################################################################
201102281800 AAXX 28184 87640 31565 23612 10289 20164 30061 4//// 57010 701// 82100
                   333 56800 82833=

################################################################################
#  SYNOPS de 87641, Azul Aerodrome (Argentina) | 36-50S | 059-53W | 146 m 
################################################################################
201102281800 AAXX 28184 87641 31565 23608 10268 20202 30018 40190 57019 70241 82100
                   333 56100 82830=

################################################################################
#  SYNOPS de 87645, Tandil Aerodrome (Argentina) | 37-14S | 059-15W | 175 m 
################################################################################
201102281800 AAXX 28184 87645 31470 30904 10277 20186 39990 40194 57016 70340 83100
                   333 56400 83812=

################################################################################
#  SYNOPS de 87648, Dolores Aerodrome (Argentina) | 36-21S | 057-44W | 10 m 
################################################################################
201102281800 AAXX 28184 87648 32960 00000 10285 20157 30178 40189 57023=

################################################################################
#  SYNOPS de 87688, Tres Arroyos (Argentina) | 38-20S | 060-15W | 115 m 
################################################################################
201102281800 AAXX 28184 87688 32470 13610 10320 20128 30041 40174 57013 81100
                   333 56800 81816=

################################################################################
#  SYNOPS de 87692, Mar Del Plata Aerodrome (Argentina) | 37-56S | 057-35W | 18 m 
################################################################################
201102281800 AAXX 28184 87692 32960 10712 10238 20195 30182 40207 58009 80001
                   333 56005 81070 555 10206=

################################################################################
#  SYNOPS de 87715, Neuquen Aerodrome (Argentina) | 38-57S | 068-08W | 270 m 
################################################################################
201102281800 AAXX 28184 87715 32970 02304 10325 20098 39785 40088 57025=

################################################################################
#  SYNOPS de 87750, Bahia Blanca Aerodrome (Argentina) | 38-44S | 062-10W | 75 m 
################################################################################
201102281800 AAXX 28184 87750 32965 03218 10338 20108 30054 40149 57019=

################################################################################
#  SYNOPS de 87765, Bariloche Aerodrome (Argentina) | 41-09S | 071-10W | 845 m 
################################################################################
201102281800 AAXX 28184 87765 32970 02915 10266 21028 39181 48490 57021=

################################################################################
#  SYNOPS de 87774, Maquinchao (Argentina) | 41-15S | 068-44W | 888 m 
################################################################################
201102281800 AAXX 28184 87774 32682 30000 10295 21086 39122 48495 5//// 83101
                   333 83836 61070=

################################################################################
#  SYNOPS de 87784, San Antonio Oeste Aerodrome (Argentina) | 40-47S | 065-06W | 20 m 
################################################################################
201102281800 AAXX 28184 87784 32680 10212 10358 20143 30092 40114 57020 81100
                   333 56000 81840=

################################################################################
#  SYNOPS de 87791, Viedma Aerodrome (Argentina) | 40-51S | 063-01W | 6 m 
################################################################################
201102281800 AAXX 28184 87791 32980 13611 10358 20128 30120 40127 57016 80002
                   333 56006 81070=

################################################################################
#  SYNOPS de 87803, Esquel Aerodrome (Argentina) | 42-56S | 071-09W | 789 m 
################################################################################
201102281800 AAXX 28184 87803 32980 41801 10251 20053 39210 40101 57023 80006
                   333 56004 84270=

################################################################################
#  SYNOPS de 87828, Trelew Aerodrome (Argentina) | 43-12S | 065-16W | 39 m 
################################################################################
201102281800 AAXX 28184 87828 32980 13412 10322 20041 30065 40114 57016 80002
                   333 56000 81070=

################################################################################
#  SYNOPS de 87852, Perito Moreno Aerodrome (Argentina) | 46-31S | 071-01W | 429 m 
################################################################################
201102281800 AAXX 28184 87852 32584 62722 10235 20112 39574 40063 56001 82116
                   333 56666 82828 83460=

################################################################################
#  SYNOPS de 87860, Comodoro Rivadavia Aerodrome (Argentina) | 45-47S | 067-30W | 58 m 
################################################################################
201102281800 AAXX 28184 87860 32680 72713 10303 20114 30026 40080 57017 81106
                   333 56506 81840 87070=

################################################################################
#  SYNOPS de 87896, Puerto Deseado Aerodrome (Argentina) | 47-44S | 065-55W | 81 m 
################################################################################
201102281800 AAXX 28184 87896 32980 52922 10287 20091 39966 40058 58007 80002
                   333 56006 85070=

################################################################################
#  SYNOPS de 87909, San Julian Aerodrome (Argentina) | 49-19S | 067-45W | 58 m 
################################################################################
201102281800 AAXX 28184 87909 32980 73217 10258 20065 39969 40041 55004 83078
                   333 56000 83359 86270=

################################################################################
#  SYNOPS de 87925, Rio Gallegos Aerodrome (Argentina) | 51-37S | 069-17W | 20 m 
################################################################################
201102281800 AAXX 28184 87925 32680 60911 10190 20088 39980 40002 57011 84760
                   333 56660 84740 83360=

################################################################################
#  SYNOPS de 87938, Ushuaia Aerodrome (Argentina) | 54-48S | 068-19W | 16 m 
################################################################################
201102281800 AAXX 28184 87938 32680 51106 10159 20048 39924 49992 52007 84170
                   333 56330 84835 83360=

################################################################################
#  SYNOPS de 87148, Presidencia Roque Saenz Pena Aero (Argentina) | 26-44S | 060-29W | 91 m 
################################################################################
201102281800 AAXX 28184 87148 32570 11608 10288 20152 30010 40118 57020 81100
                   333 56000 81825=

################################################################################
#  SYNOPS de 87904, El Calafate Aero (Argentina) | 50-16S | 072-03W | 199 m 
################################################################################
201102281800 AAXX 28184 87904 32680 32910 10174 20081 39757 49997 57016 82470
                   333 56660 82645=

</pre>
</body>
</html>
